ONEWEB-0199             
1 48234U 21031AA  25069.39967650  .00000322  00000+0  83343-3 0  9995
2 48234  87.9063  21.9067 0001983  83.9192 276.2163 13.14504350187339
ONEWEB-0203             
1 48235U 21031AB  25069.39016064  .00000381  00000+0  99214-3 0  9999
2 48235  87.9063  21.9108 0002284  81.1167 279.0222 13.14504646187349
ONEWEB-0197             
1 48236U 21031AC  25069.82228707 -.00000147  00000+0 -43069-3 0  9996
2 48236  87.9064  21.8359 0001654  89.0041 271.1279 13.14500935187315
ONEWEB-0194             
1 48237U 21031AD  25069.42028768 -.00000135  00000+0 -39940-3 0  9998
2 48237  87.9066  21.9106 0002150  83.5223 276.6151 13.14503983187430
ONEWEB-0193             
1 48238U 21031AE  25069.36002771 -.00000073  00000+0 -23185-3 0  9993
2 48238  87.9064  21.9304 0002010  77.3900 282.7455 13.14501833187377
ONEWEB-0191             
1 48239U 21031AF  25069.37113175  .00000057  00000+0  12025-3 0  9997
2 48239  87.9060  21.9041 0001961  77.7220 282.4130 13.14504066187238
ONEWEB-0195             
1 48240U 21031AG  25069.42424835 -.00000143  00000+0 -41972-3 0  9994
2 48240  87.9061  21.8912 0001896  66.9662 293.1667 13.14505113187221
ONEWEB-0201             
1 48241U 21031AH  25069.41314184  .00000107  00000+0  25461-3 0  9992
2 48241  87.9065  21.9372 0001785  75.9675 284.1653 13.14505540187452
